*******************************************************************************
JPL/HORIZONS             3297 Hong Kong (1978 WN14)        2023-Sep-04 11:22:48
Rec #:    3297 (+COV) Soln.date: 2023-Aug-23_08:52:30   # obs: 3227 (1972-2023)
 
IAU76/J2000 helio. ecliptic osc. elements (au, days, deg., period=Julian yrs):
 
  EPOCH=  2457406.5 ! 2016-Jan-19.00 (TDB)         Residual RMS= .2652
   EC= .1733488088212982   QR= 2.591354833846642   TP= 2457987.8604089306
   OM= 112.3285595331928   W=  289.510743476635    IN= 2.376197056427147
   A= 3.134762111879005    MA= 256.7612724737383   ADIST= 3.678169389911367
   PER= 5.55028            N= .177581283           ANGMOM= .029995662
   DAN= 2.87416            DDN= 3.22742            L= 41.8548242
   B= -2.2396815           MOID= 1.60051           TP= 2017-Aug-22.3604089306
 
Asteroid physical parameters (km, seconds, rotational period in hours):
   GM= n.a.                RAD= 7.791              ROTPER= n.a.
   H= 12.55                G= .150                 B-V= n.a.
                           ALBEDO= .087            STYP= n.a.

ASTEROID comments: 
1: soln ref.= JPL#47, OCC=0
2: source=ORB
*******************************************************************************


*******************************************************************************
Ephemeris / API_USER Mon Sep  4 11:22:48 2023 Pasadena, USA      / Horizons
*******************************************************************************
Target body name: 3297 Hong Kong (1978 WN14)      {source: JPL#47}
Center body name: Solar System Barycenter (0)     {source: DE441}
Center-site name: BODY CENTER
*******************************************************************************
Start time      : A.D. 2023-Aug-12 00:00:00.0000 TDB
Stop  time      : A.D. 2023-Aug-13 00:00:00.0000 TDB
Step-size       : 2880 minutes
*******************************************************************************
Center geodetic : 0.0, 0.0, 0.0                   {E-lon(deg),Lat(deg),Alt(km)}
Center cylindric: 0.0, 0.0, 0.0                   {E-lon(deg),Dxy(km),Dz(km)}
Center radii    : (undefined)
Small perturbers: Yes                             {source: SB441-N16}
Output units    : KM-S
Calendar mode   : Mixed Julian/Gregorian
Output type     : GEOMETRIC cartesian states
Output format   : 2 (position and velocity)
Reference frame : Ecliptic of J2000.0
*******************************************************************************
Initial IAU76/J2000 heliocentric ecliptic osculating elements (au, days, deg.):
  EPOCH=  2457406.5 ! 2016-Jan-19.00 (TDB)         Residual RMS= .2652         
   EC= .1733488088212982   QR= 2.591354833846642   TP= 2457987.8604089306      
   OM= 112.3285595331928   W=  289.510743476635    IN= 2.376197056427147       
  Equivalent ICRF heliocentric cartesian coordinates (au, au/d):
   X= 6.086683236127308E-01  Y=-3.026156625367359E+00  Z=-1.281000973902815E+00
  VX= 8.552525099741901E-03 VY= 2.962991636310044E-03 VZ= 8.741137577284175E-04
Asteroid physical parameters (km, seconds, rotational period in hours):        
   GM= n.a.                RAD= 7.791              ROTPER= n.a.                
   H= 12.55                G= .150                 B-V= n.a.                   
                           ALBEDO= .087            STYP= n.a.                  
*******************************************************************************
JDTDB
   X     Y     Z
   VX    VY    VZ
*******************************************************************************
$$SOE
2460168.500000000 = A.D. 2023-Aug-12 00:00:00.0000 TDB 
 X = 6.671623683725163E+07 Y = 3.963302059041318E+08 Z =-8.808819503466219E+06
 VX=-1.870044976585786E+01 VY= 5.115069345728773E+00 VZ= 6.374564469943758E-01
$$EOE
*******************************************************************************
 
TIME

  Barycentric Dynamical Time ("TDB" or T_eph) output was requested. This
continuous coordinate time is equivalent to the relativistic proper time
of a clock at rest in a reference frame co-moving with the solar system
barycenter but outside the system's gravity well. It is the independent
variable in the solar system relativistic equations of motion.

  TDB runs at a uniform rate of one SI second per second and is independent
of irregularities in Earth's rotation.
 
CALENDAR SYSTEM

  Mixed calendar mode was active such that calendar dates after AD 1582-Oct-15
(if any) are in the modern Gregorian system. Dates prior to 1582-Oct-5 (if any)
are in the Julian calendar system, which is automatically extended for dates
prior to its adoption on 45-Jan-1 BC.  The Julian calendar is useful for
matching historical dates. The Gregorian calendar more accurately corresponds
to the Earth's orbital motion and seasons. A "Gregorian-only" calendar mode is
available if such physical events are the primary interest.

REFERENCE FRAME AND COORDINATES

  Ecliptic at the standard reference epoch

    Reference epoch: J2000.0
    X-Y plane: adopted Earth orbital plane at the reference epoch
               Note: IAU76 obliquity of 84381.448 arcseconds wrt ICRF X-Y plane
    X-axis   : ICRF
    Z-axis   : perpendicular to the X-Y plane in the directional (+ or -) sense
               of Earth's north pole at the reference epoch.

  Symbol meaning:

    JDTDB    Julian Day Number, Barycentric Dynamical Time
      X      X-component of position vector (km)
      Y      Y-component of position vector (km)
      Z      Z-component of position vector (km)
      VX     X-component of velocity vector (km/sec)                           
      VY     Y-component of velocity vector (km/sec)                           
      VZ     Z-component of velocity vector (km/sec)                           

ABERRATIONS AND CORRECTIONS

 Geometric state vectors have NO corrections or aberrations applied.

Computations by ...

    Solar System Dynamics Group, Horizons On-Line Ephemeris System
    4800 Oak Grove Drive, Jet Propulsion Laboratory
    Pasadena, CA  91109   USA

    General site: https://ssd.jpl.nasa.gov/
    Mailing list: https://ssd.jpl.nasa.gov/email_list.html
    System news : https://ssd.jpl.nasa.gov/horizons/news.html
    User Guide  : https://ssd.jpl.nasa.gov/horizons/manual.html
    Connect     : browser        https://ssd.jpl.nasa.gov/horizons/app.html#/x
                  API            https://ssd-api.jpl.nasa.gov/doc/horizons.html
                  command-line   telnet ssd.jpl.nasa.gov 6775
                  e-mail/batch   https://ssd.jpl.nasa.gov/ftp/ssd/hrzn_batch.txt
                  scripts        https://ssd.jpl.nasa.gov/ftp/ssd/SCRIPTS
    Author      : Jon.D.Giorgini@jpl.nasa.gov
*******************************************************************************
